ORBCOMM FM40            
1 33065U 08031F   25210.93242340  .00001939  00000+0  26757-3 0  9997
2 33065  48.4407 123.7205 0006432 215.7279 195.5981 14.82170352920501
VESSELSAT 1             
1 37840U 11058C   25210.66135739  .00000346  00000+0  43901-4 0  9990
2 37840  19.9603 196.8760 0013477 294.1305  65.7689 14.11359840712316
ORBCOMM FM109           
1 40086U 14040A   25210.59774562  .00000630  00000+0  17156-3 0  9993
2 40086  47.0023 175.9883 0001557 213.1956 146.8832 14.58221994587256
ORBCOMM FM107           
1 40087U 14040B   25210.96683649  .00000605  00000+0  16608-3 0  9993
2 40087  47.0038 175.1930 0000195 137.3651 222.7249 14.58296612587383
ORBCOMM FM106           
1 40088U 14040C   25210.86242060  .00000982  00000+0  19518-3 0  9992
2 40088  47.0620 354.3697 0017595 264.2160  95.6725 14.69518468589756
ORBCOMM FM104           
1 40090U 14040E   25210.72794069  .00000407  00000+0  12796-3 0  9994
2 40090  47.0032 210.4433 0015850  35.8376 324.3570 14.56689591586826
